ONEWEB-0545             
1 54647U 22166F   24186.96279267  .00000105  00000+0  22174-3 0  9996
2 54647  87.9272  25.7851 0002277  93.4011 266.7383 13.21825286 77419
ONEWEB-0580             
1 54648U 22166G   24186.93598379  .00000013  00000+0  44390-6 0  9997
2 54648  87.9279  25.7606 0002117 101.6467 258.4905 13.21825189 77459
ONEWEB-0582             
1 54649U 22166H   24186.82716702  .00000033  00000+0  47596-4 0  9999
2 54649  87.9276  25.8189 0002138 106.7157 253.4211 13.21824204 77417
ONEWEB-0583             
1 54650U 22166J   24186.91391015 -.00000039  00000+0 -12639-3 0  9994
2 54650  87.9275  25.8017 0001930  87.6577 272.4778 13.21825212 77431
ONEWEB-0584             
1 54651U 22166K   24186.93440702  .00000002  00000+0 -26629-4 0  9999
2 54651  87.9278  25.7643 0002041  96.1014 264.0352 13.21824687 77423
ONEWEB-0585             
1 54652U 22166L   24186.95963607  .00000098  00000+0  20697-3 0  9998
2 54652  87.9283  25.7683 0001781  84.5947 275.5390 13.21825354 77432
ONEWEB-0586             
1 54653U 22166M   24186.82085937  .00000070  00000+0  13839-3 0  9996
2 54653  87.9276  25.8097 0002003  92.1871 267.9493 13.21826968 77413
ONEWEB-0587             
1 54654U 22166N   24186.83032603  .00000068  00000+0  13397-3 0  9996
2 54654  87.9274  25.7628 0001741  78.1221 282.0108 13.21825792 77574
